NORAD_CAT_ID,OBJECT_NAME,OBJECT_TYPE,EPOCH,MEAN_MOTION,ECCENTRICITY,INCLINATION,RA_OF_ASC_NODE,ARG_OF_PERICENTER,MEAN_ANOMALY,BSTAR,MEAN_MOTION_DOT,MEAN_MOTION_DDOT,TLE_LINE0,TLE_LINE1,TLE_LINE2,SEMIMAJOR_AXIS,PERIOD,APOGEE,PERIGEE,DECAYED
49409.0,STARLINK-3075,PAYLOAD,2022-03-11 12:00:00,15.08818145,0.0002288,53.2198,299.6738,50.8469,178.4069,0.0030845,0.00049116,0.0,0 STARLINK-3075,1 49409U 21104B   22070.50001157  .00049116  00000-0  30845-2 0  9997,2 49409  53.2198 299.6738 0002288  50.8469 178.4069 15.08818145 19435,6917.946999999999,95.439,541.395,538.229,0.0
49409.0,STARLINK-3075,PAYLOAD,2022-03-11 14:00:01,15.08826933,0.0002296,53.2199,299.2996,52.3595,269.7884,0.0027706,0.00044067,0.0,0 STARLINK-3075,1 49409U 21104B   22070.58334491  .00044067  00000-0  27706-2 0  9997,2 49409  53.2199 299.2996 0002296  52.3595 269.7884 15.08826933  3575,6917.92,95.438,541.374,538.197,0.0
49409.0,STARLINK-3075,PAYLOAD,2022-03-11 22:00:00,15.08862276,0.0002446,53.2194,297.8043,48.2189,285.522,-0.0032934,-0.00052357,0.0,0 STARLINK-3075,1 49409U 21104B   22070.91667824 -.00052357  00000-0 -32934-2 0  9995,2 49409  53.2194 297.8043 0002446  48.2189 285.5220 15.08862276 19495,6917.812,95.436,541.369,537.985,0.0
49409.0,STARLINK-3075,PAYLOAD,2022-03-12 06:00:00,15.08885544,0.0002367,53.2194,296.3084,47.8405,297.5147,-0.0046425,-0.00073515,0.0,0 STARLINK-3075,1 49409U 21104B   22071.25001157 -.00073515  00000-0 -46425-2 0  9993,2 49409  53.2194 296.3084 0002367  47.8405 297.5147 15.08885544 19542,6917.741,95.435,541.244,537.969,0.0
49409.0,STARLINK-3075,PAYLOAD,2022-03-12 14:00:01,15.08829978,0.0002199,53.2196,294.811,52.6113,304.3699,0.0026325,0.00041846,0.0,0 STARLINK-3075,1 49409U 21104B   22071.58334491  .00041846  00000-0  26325-2 0  9996,2 49409  53.2196 294.8110 0002199  52.6113 304.3699 15.08829978 19593,6917.911,95.438,541.297,538.255,0.0
49409.0,STARLINK-3075,PAYLOAD,2022-03-12 22:00:00,15.08865077,0.0002337,53.2194,293.3167,48.1379,320.443,-0.0027956,-0.00044538,0.0,0 STARLINK-3075,1 49409U 21104B   22071.91667824 -.00044538  00000-0 -27956-2 0  9996,2 49409  53.2194 293.3167 0002337  48.1379 320.4430 15.08865077  3602,6917.804,95.436,541.285,538.052,0.0
49409.0,STARLINK-3075,PAYLOAD,2022-03-13 06:00:00,15.08859598,0.0002197,53.2189,291.8196,46.6962,333.4846,-0.0046748,-0.00073967,0.0,0 STARLINK-3075,1 49409U 21104B   22072.25001157 -.00073967  00000-0 -46748-2 0  9993,2 49409  53.2189 291.8196 0002197  46.6962 333.4846 15.08859598 19700,6917.82,95.436,541.205,538.1659999999998,0.0
49409.0,STARLINK-3075,PAYLOAD,2022-03-13 14:00:01,15.08796505,0.000205,53.2189,290.3225,50.88,340.8844,0.0020875,0.00033052,0.0,0 STARLINK-3075,1 49409U 21104B   22072.58334491  .00033052  00000-0  20875-2 0  9991,2 49409  53.2189 290.3225 0002050  50.8800 340.8844 15.08796505  3603,6918.013000000001,95.44,541.297,538.46,0.0
49409.0,STARLINK-3075,PAYLOAD,2022-03-13 20:00:01,15.08815002,0.0002185,53.2187,289.2019,47.585,262.8402,-0.00096407,-0.00015589,0.0,0 STARLINK-3075,1 49409U 21104B   22072.83334491 -.00015589  00000-0 -96407-3 0  9991,2 49409  53.2187 289.2019 0002185  47.5850 262.8402 15.08815002 19789,6917.956999999999,95.439,541.3330000000002,538.31,0.0
49409.0,STARLINK-3075,PAYLOAD,2022-03-13 22:00:01,15.08806427,0.0002244,53.2188,288.8281,47.0929,356.2869,0.00016963,2.410000000000001e-05,0.0,0 STARLINK-3075,1 49409U 21104B   22072.91668981  .00002410  00000-0  16963-3 0  9990,2 49409  53.2188 288.8281 0002244  47.0929 356.2869 15.08806427  3604,6917.983,95.44,541.4,538.2959999999998,0.0
49409.0,STARLINK-3075,PAYLOAD,2022-03-14 14:00:01,15.08833617,0.0002045,53.218,285.8332,50.9343,15.5962,-0.0002818,-4.77e-05,0.0,0 STARLINK-3075,1 49409U 21104B   22073.58335648 -.00004770  00000-0 -28180-3 0  9992,2 49409  53.2180 285.8332 0002045  50.9343  15.5962 15.08833617 19902,6917.9,95.438,541.18,538.35,0.0
49409.0,STARLINK-3075,PAYLOAD,2022-03-14 20:00:01,15.08816879,0.0002175,53.2182,284.7133,46.7083,298.4362,-0.00073586,-0.00011973,0.0,0 STARLINK-3075,1 49409U 21104B   22073.83334491 -.00011973  00000-0 -73586-3 0  9998,2 49409  53.2182 284.7133 0002175  46.7083 298.4362 15.08816879  3561,6917.951,95.439,541.321,538.311,0.0
49409.0,STARLINK-3075,PAYLOAD,2022-03-14 22:00:00,15.08806676,0.0002219,53.2182,284.3395,46.2055,31.8321,0.00072628,0.00011279,0.0,0 STARLINK-3075,1 49409U 21104B   22073.91667824  .00011279  00000-0  72628-3 0  9999,2 49409  53.2182 284.3395 0002219  46.2055  31.8321 15.08806676 19958,6917.982,95.44,541.382,538.312,0.0
49409.0,STARLINK-3075,PAYLOAD,2022-03-15 02:00:01,15.08805391,0.0002208,53.2179,283.5914,44.0708,219.7464,0.0020259,0.00032071,0.0,0 STARLINK-3075,1 49409U 21104B   22074.08334491  .00032071  00000-0  20259-2 0  9994,2 49409  53.2179 283.5914 0002208  44.0708 219.7464 15.08805391  3570,6917.986,95.44,541.379,538.3240000000002,0.0
49409.0,STARLINK-3075,PAYLOAD,2022-03-15 22:00:00,15.08816139,0.0002311,53.218,279.8507,47.1786,65.5604,0.00093409,0.000146,0.0,0 STARLINK-3075,1 49409U 21104B   22074.91667824  .00014600  00000-0  93409-3 0  9991,2 49409  53.2180 279.8507 0002311  47.1786  65.5604 15.08816139  3590,6917.953,95.439,541.4169999999998,538.22,0.0
49409.0,STARLINK-3075,PAYLOAD,2022-03-16 06:00:00,15.08842819,0.0002223,53.218,278.3532,48.0904,76.2191,-0.0016092,-0.0002581,0.0,0 STARLINK-3075,1 49409U 21104B   22075.25001157 -.00025810  00000-0 -16092-2 0  9999,2 49409  53.2180 278.3532 0002223  48.0904  76.2191 15.08842819 20151,6917.871999999999,95.437,541.275,538.1990000000002,0.0
49409.0,STARLINK-3075,PAYLOAD,2022-03-16 14:00:01,15.0884054,0.0002211,53.2182,276.8561,52.3181,83.5808,0.00062153,9.618e-05,0.0,0 STARLINK-3075,1 49409U 21104B   22075.58334491  .00009618  00000-0  62153-3 0  9991,2 49409  53.2182 276.8561 0002211  52.3181  83.5808 15.08840540  3594,6917.879,95.438,541.273,538.214,0.0
49409.0,STARLINK-3075,PAYLOAD,2022-03-16 20:00:01,15.08843766,0.0002377,53.218,275.7354,48.8621,5.7338,-0.00089198,-0.00014458,0.0,0 STARLINK-3075,1 49409U 21104B   22075.83334491 -.00014458  00000-0 -89198-3 0  9997,2 49409  53.2180 275.7354 0002377  48.8621   5.7338 15.08843766 20240,6917.869000000002,95.437,541.378,538.09,0.0
49409.0,STARLINK-3075,PAYLOAD,2022-03-17 14:00:01,15.0885855,0.0002279,53.2185,272.367,53.4275,117.2664,0.00021212,3.091e-05,0.0,0 STARLINK-3075,1 49409U 21104B   22076.58334491  .00003091  00000-0  21212-3 0  9992,2 49409  53.2185 272.3670 0002279  53.4275 117.2664 15.08858550 20357,6917.824000000001,95.436,541.265,538.112,0.0
49409.0,STARLINK-3075,PAYLOAD,2022-03-17 22:00:00,15.08843483,0.0002436,53.2185,270.8722,48.2521,134.0644,0.0016243,0.0002566,0.0,0 STARLINK-3075,1 49409U 21104B   22076.91667824  .00025660  00000-0  16243-2 0  9991,2 49409  53.2185 270.8722 0002436  48.2521 134.0644 15.08843483  3602,6917.87,95.437,541.42,538.05,0.0
49409.0,STARLINK-3075,PAYLOAD,2022-03-18 14:00:01,15.0884663,0.0002198,53.2188,267.8778,52.8273,152.6972,-0.00018609,-3.249e-05,0.0,0 STARLINK-3075,1 49409U 21104B   22077.58334491 -.00003249  00000-0 -18609-3 0  9996,2 49409  53.2188 267.8778 0002198  52.8273 152.6972 15.08846630 20507,6917.86,95.437,541.246,538.205,0.0
49409.0,STARLINK-3075,PAYLOAD,2022-03-18 22:00:00,15.08823478,0.0002372,53.2185,266.3829,47.8109,169.3201,0.0022815,0.00036193,0.0,0 STARLINK-3075,1 49409U 21104B   22077.91667824  .00036193  00000-0  22815-2 0  9997,2 49409  53.2185 266.3829 0002372  47.8109 169.3201 15.08823478  3664,6917.931,95.439,541.437,538.155,0.0
49409.0,STARLINK-3075,PAYLOAD,2022-03-19 14:00:01,15.08871975,0.0002139,53.2189,263.3887,53.5219,186.7962,-0.0034273,-0.00054471,0.0,0 STARLINK-3075,1 49409U 21104B   22078.58334491 -.00054471  00000-0 -34273-2 0  9994,2 49409  53.2189 263.3887 0002139  53.5219 186.7962 15.08871975  3589,6917.783,95.436,541.127,538.168,0.0
49409.0,STARLINK-3075,PAYLOAD,2022-03-19 22:00:01,15.08805114,0.0002271,53.2187,261.8937,47.2995,204.6971,0.0024505,0.00038891,0.0,0 STARLINK-3075,1 49409U 21104B   22078.91668981  .00038891  00000-0  24505-2 0  9998,2 49409  53.2187 261.8937 0002271  47.2995 204.6971 15.08805114 20709,6917.986999999999,95.44,541.423,538.281,0.0
49409.0,STARLINK-3075,PAYLOAD,2022-03-20 14:00:01,15.08848175,0.0002099,53.2188,258.8997,53.8961,221.1895,-0.00095263,-0.00015421,0.0,0 STARLINK-3075,1 49409U 21104B   22079.58334491 -.00015421  00000-0 -95263-3 0  9994,2 49409  53.2188 258.8997 0002099  53.8961 221.1895 15.08848175 20800,6917.855,95.437,541.172,538.268,0.0
49409.0,STARLINK-3075,PAYLOAD,2022-03-20 22:00:01,15.08818263,0.0002266,53.2186,257.4048,48.8211,237.9328,0.0027682,0.00044018,0.0,0 STARLINK-3075,1 49409U 21104B   22079.91668981  .00044018  00000-0  27682-2 0  9996,2 49409  53.2186 257.4048 0002266  48.8211 237.9328 15.08818263  3484,6917.946999999999,95.439,541.379,538.244,0.0
49409.0,STARLINK-3075,PAYLOAD,2022-03-21 14:00:01,15.08874862,0.0002087,53.2186,254.4108,54.2577,255.6138,-0.0036242,-0.00057563,0.0,0 STARLINK-3075,1 49409U 21104B   22080.58334491 -.00057563  00000-0 -36242-2 0  9990,2 49409  53.2186 254.4108 0002087  54.2577 255.6138 15.08874862 20959,6917.774,95.435,541.0830000000002,538.195,0.0
49409.0,STARLINK-3075,PAYLOAD,2022-03-21 22:00:00,15.08804693,0.0002191,53.2184,252.9159,47.9798,273.5077,0.0024359,0.00038655,0.0,0 STARLINK-3075,1 49409U 21104B   22080.91667824  .00038655  00000-0  24359-2 0  9991,2 49409  53.2184 252.9159 0002191  47.9798 273.5077 15.08804693  3593,6917.988,95.44,541.369,538.3380000000002,0.0
49409.0,STARLINK-3075,PAYLOAD,2022-03-22 06:00:00,15.08817378,0.0002045,53.2183,251.4179,51.9638,281.1008,0.00095254,0.00014895,0.0,0 STARLINK-3075,1 49409U 21104B   22081.25001157  .00014895  00000-0  95254-3 0  9993,2 49409  53.2183 251.4179 0002045  51.9638 281.1008 15.08817378 21058,6917.95,95.439,541.229,538.4,0.0
